[{"OBJECT_NAME":"STARLINK-34491","OBJECT_ID":"2025-147AB","EPOCH":"2026-03-09T17:56:26.502144","MEAN_MOTION":15.30208811,"ECCENTRICITY":8.96e-5,"INCLINATION":53.1592,"RA_OF_ASC_NODE":242.26,"ARG_OF_PERICENTER":94.2011,"MEAN_ANOMALY":265.9092,"EPHEMERIS_TYPE":0,"CLASSIFICATION_TYPE":"U","NORAD_CAT_ID":64780,"ELEMENT_SET_NO":999,"REV_AT_EPOCH":3876,"BSTAR":0.0010265496,"MEAN_MOTION_DOT":0.00030176,"MEAN_MOTION_DDOT":0},{"OBJECT_NAME":"SPACEMOBILE-005 DEB","OBJECT_ID":"2024-163K","EPOCH":"2026-03-09T07:33:15.902496","MEAN_MOTION":15.31481997,"ECCENTRICITY":0.00072885,"INCLINATION":52.9762,"RA_OF_ASC_NODE":31.7924,"ARG_OF_PERICENTER":175.8731,"MEAN_ANOMALY":184.2329,"EPHEMERIS_TYPE":0,"CLASSIFICATION_TYPE":"U","NORAD_CAT_ID":62373,"ELEMENT_SET_NO":999,"REV_AT_EPOCH":8280,"BSTAR":0.00063853778,"MEAN_MOTION_DOT":0.00019381,"MEAN_MOTION_DDOT":0}]
